start=new Date('2022-02-03T00:00:00.000Z').valueOf();
sats=[{"PERIAPSIS":"546.181","SITE":"AFETR","MEAN_MOTION_DOT":"-0.00000140","BSTAR":"0.00000946740000","MEAN_ANOMALY":"294.3911","OBJECT_ID":"2021-044R","OBJECT_NAME":"STARLINK-2720","EPOCH":"2022-02-02T14:57:23.716224","TIME_SYSTEM":"UTC","PERIOD":"95.593","REF_FRAME":"TEME","APOAPSIS":"548.296","ELEMENT_SET_NO":"999","CLASSIFICATION_TYPE":"U","RCS_SIZE":"LARGE","TLE_LINE2":"2 48653  53.0567 357.7175 0001527  65.7237 294.3911 15.06391901 38212","COUNTRY_CODE":"US","MEAN_MOTION_DDOT":"0.0000000000000","ECCENTRICITY":"0.00015270","MEAN_MOTION":"15.06391901","CENTER_NAME":"EARTH","LAUNCH_DATE":"2021-05-26","ARG_OF_PERICENTER":"65.7237","TLE_LINE1":"1 48653U 21044R   22033.62319116 -.00000140  00000-0  94674-5 0  9997","DECAY_DATE":null,"FILE":"3290513","OBJECT_TYPE":"PAYLOAD","SEMIMAJOR_AXIS":"6925.373","INCLINATION":"53.0567","EPHEMERIS_TYPE":"0","NORAD_CAT_ID":"48653","REV_AT_EPOCH":"3821","RA_OF_ASC_NODE":"357.7175","GP_ID":"195195109","MEAN_ELEMENT_THEORY":"SGP4"},{"PERIAPSIS":"546.034","SITE":"AFETR","OBJECT_NAME":"STARLINK-2651","OBJECT_ID":"2021-044S","MEAN_ANOMALY":"291.1897","MEAN_MOTION_DOT":"0.00005740","BSTAR":"0.00040379000000","EPOCH":"2022-02-02T14:52:04.304064","TIME_SYSTEM":"UTC","REF_FRAME":"TEME","PERIOD":"95.591","ELEMENT_SET_NO":"999","APOAPSIS":"548.310","CLASSIFICATION_TYPE":"U","RCS_SIZE":"LARGE","TLE_LINE2":"2 48654  53.0551 357.7414 0001643  68.9268 291.1897 15.06413582 38218","MEAN_MOTION_DDOT":"0.0000000000000","COUNTRY_CODE":"US","MEAN_MOTION":"15.06413582","ECCENTRICITY":"0.00016430","CENTER_NAME":"EARTH","ARG_OF_PERICENTER":"68.9268","LAUNCH_DATE":"2021-05-26","DECAY_DATE":null,"TLE_LINE1":"1 48654U 21044S   22033.61949426  .00005740  00000-0  40379-3 0  9991","FILE":"3290513","OBJECT_TYPE":"PAYLOAD","INCLINATION":"53.0551","SEMIMAJOR_AXIS":"6925.307","NORAD_CAT_ID":"48654","EPHEMERIS_TYPE":"0","REV_AT_EPOCH":"3821","RA_OF_ASC_NODE":"357.7414","GP_ID":"195193358","MEAN_ELEMENT_THEORY":"SGP4"},{"REV_AT_EPOCH":"3821","RA_OF_ASC_NODE":"357.7600","GP_ID":"195193608","MEAN_ELEMENT_THEORY":"SGP4","EPHEMERIS_TYPE":"0","NORAD_CAT_ID":"48655","OBJECT_TYPE":"PAYLOAD","SEMIMAJOR_AXIS":"6925.324","INCLINATION":"53.0570","TLE_LINE1":"1 48655U 21044T   22033.61580923  .00002683  00000-0  19888-3 0  9999","DECAY_DATE":null,"FILE":"3290513","CENTER_NAME":"EARTH","LAUNCH_DATE":"2021-05-26","ARG_OF_PERICENTER":"67.9949","RCS_SIZE":"LARGE","TLE_LINE2":"2 48655  53.0570 357.7600 0001423  67.9949 292.1191 15.06407866 38214","COUNTRY_CODE":"US","MEAN_MOTION_DDOT":"0.0000000000000","ECCENTRICITY":"0.00014230","MEAN_MOTION":"15.06407866","PERIOD":"95.592","REF_FRAME":"TEME","APOAPSIS":"548.175","ELEMENT_SET_NO":"999","CLASSIFICATION_TYPE":"U","PERIAPSIS":"546.204","SITE":"AFETR","BSTAR":"0.00019888000000","MEAN_MOTION_DOT":"0.00002683","MEAN_ANOMALY":"292.1191","OBJECT_NAME":"STARLINK-2657","OBJECT_ID":"2021-044T","EPOCH":"2022-02-02T14:46:45.917472","TIME_SYSTEM":"UTC"},{"EPHEMERIS_TYPE":"0","NORAD_CAT_ID":"48656","REV_AT_EPOCH":"3821","RA_OF_ASC_NODE":"357.7681","GP_ID":"195194859","MEAN_ELEMENT_THEORY":"SGP4","DECAY_DATE":null,"TLE_LINE1":"1 48656U 21044U   22033.61213599 -.00000815  00000-0 -35805-4 0  9997","FILE":"3290513","OBJECT_TYPE":"PAYLOAD","INCLINATION":"53.0568","SEMIMAJOR_AXIS":"6925.382","TLE_LINE2":"2 48656  53.0568 357.7681 0001660  70.4561 289.6607 15.06389040 38219","RCS_SIZE":"LARGE","MEAN_MOTION_DDOT":"0.0000000000000","COUNTRY_CODE":"US","MEAN_MOTION":"15.06389040","ECCENTRICITY":"0.00016600","CENTER_NAME":"EARTH","ARG_OF_PERICENTER":"70.4561","LAUNCH_DATE":"2021-05-26","PERIAPSIS":"546.098","SITE":"AFETR","OBJECT_ID":"2021-044U","OBJECT_NAME":"STARLINK-2701","BSTAR":"-0.00003580500000","MEAN_MOTION_DOT":"-0.00000815","MEAN_ANOMALY":"289.6607","TIME_SYSTEM":"UTC","EPOCH":"2022-02-02T14:41:28.549536","REF_FRAME":"TEME","PERIOD":"95.593","ELEMENT_SET_NO":"999","APOAPSIS":"548.397","CLASSIFICATION_TYPE":"U"},{"REV_AT_EPOCH":"3826","RA_OF_ASC_NODE":"356.2972","GP_ID":"195194610","MEAN_ELEMENT_THEORY":"SGP4","EPHEMERIS_TYPE":"0","NORAD_CAT_ID":"48657","OBJECT_TYPE":"PAYLOAD","INCLINATION":"53.0566","SEMIMAJOR_AXIS":"6925.379","DECAY_DATE":null,"TLE_LINE1":"1 48657U 21044V   22033.94018715  .00000278  00000-0  37542-4 0  9998","FILE":"3290513","CENTER_NAME":"EARTH","ARG_OF_PERICENTER":"68.3305","LAUNCH_DATE":"2021-05-26","RCS_SIZE":"LARGE","TLE_LINE2":"2 48657  53.0566 356.2972 0001649  68.3305 291.7859 15.06390174 38262","MEAN_MOTION_DDOT":"0.0000000000000","COUNTRY_CODE":"US","MEAN_MOTION":"15.06390174","ECCENTRICITY":"0.00016490","REF_FRAME":"TEME","PERIOD":"95.593","ELEMENT_SET_NO":"999","APOAPSIS":"548.386","CLASSIFICATION_TYPE":"U","PERIAPSIS":"546.102","SITE":"AFETR","OBJECT_NAME":"STARLINK-2734","OBJECT_ID":"2021-044V","MEAN_MOTION_DOT":"0.00000278","BSTAR":"0.00003754200000","MEAN_ANOMALY":"291.7859","TIME_SYSTEM":"UTC","EPOCH":"2022-02-02T22:33:52.169760"},{"SITE":"AFETR","PERIAPSIS":"546.098","EPOCH":"2022-02-02T14:30:50.216832","TIME_SYSTEM":"UTC","MEAN_MOTION_DOT":"0.00002733","BSTAR":"0.00020224000000","MEAN_ANOMALY":"299.8118","OBJECT_ID":"2021-044W","OBJECT_NAME":"STARLINK-2647","APOAPSIS":"548.287","ELEMENT_SET_NO":"999","PERIOD":"95.592","REF_FRAME":"TEME","CLASSIFICATION_TYPE":"U","TLE_LINE2":"2 48658  53.0554 357.8170 0001581  60.3029 299.8118 15.06406839 38215","RCS_SIZE":"LARGE","ECCENTRICITY":"0.00015810","MEAN_MOTION":"15.06406839","COUNTRY_CODE":"US","MEAN_MOTION_DDOT":"0.0000000000000","CENTER_NAME":"EARTH","LAUNCH_DATE":"2021-05-26","ARG_OF_PERICENTER":"60.3029","FILE":"3290262","TLE_LINE1":"1 48658U 21044W   22033.60474788  .00002733  00000-0  20224-3 0  9994","DECAY_DATE":null,"OBJECT_TYPE":"PAYLOAD","SEMIMAJOR_AXIS":"6925.328","INCLINATION":"53.0554","EPHEMERIS_TYPE":"0","NORAD_CAT_ID":"48658","RA_OF_ASC_NODE":"357.8170","REV_AT_EPOCH":"3821","MEAN_ELEMENT_THEORY":"SGP4","GP_ID":"195163417"},{"TLE_LINE1":"1 48659U 21044X   22033.86646081  .00002505  00000-0  18703-3 0  9996","DECAY_DATE":null,"FILE":"3290513","INCLINATION":"53.0567","SEMIMAJOR_AXIS":"6925.354","OBJECT_TYPE":"PAYLOAD","EPHEMERIS_TYPE":"0","NORAD_CAT_ID":"48659","GP_ID":"195194108","MEAN_ELEMENT_THEORY":"SGP4","REV_AT_EPOCH":"3825","RA_OF_ASC_NODE":"356.6388","BSTAR":"0.00018703000000","MEAN_MOTION_DOT":"0.00002505","MEAN_ANOMALY":"287.6429","OBJECT_ID":"2021-044X","OBJECT_NAME":"STARLINK-2717","EPOCH":"2022-02-02T20:47:42.213984","TIME_SYSTEM":"UTC","PERIAPSIS":"546.059","SITE":"AFETR","CLASSIFICATION_TYPE":"U","PERIOD":"95.592","REF_FRAME":"TEME","APOAPSIS":"548.379","ELEMENT_SET_NO":"999","COUNTRY_CODE":"US","MEAN_MOTION_DDOT":"0.0000000000000","ECCENTRICITY":"0.00016750","MEAN_MOTION":"15.06398329","TLE_LINE2":"2 48659  53.0567 356.6388 0001675  72.4743 287.6429 15.06398329 38257","RCS_SIZE":"LARGE","LAUNCH_DATE":"2021-05-26","ARG_OF_PERICENTER":"72.4743","CENTER_NAME":"EARTH"},{"OBJECT_TYPE":"PAYLOAD","SEMIMAJOR_AXIS":"6925.392","INCLINATION":"53.0567","TLE_LINE1":"1 48660U 21044Y   22033.59739114  .00000229  00000-0  34317-4 0  9999","DECAY_DATE":null,"FILE":"3290262","REV_AT_EPOCH":"3821","RA_OF_ASC_NODE":"357.8406","GP_ID":"195164419","MEAN_ELEMENT_THEORY":"SGP4","EPHEMERIS_TYPE":"0","NORAD_CAT_ID":"48660","PERIOD":"95.593","REF_FRAME":"TEME","APOAPSIS":"548.487","ELEMENT_SET_NO":"999","CLASSIFICATION_TYPE":"U","PERIAPSIS":"546.027","SITE":"AFETR","MEAN_ANOMALY":"289.5281","MEAN_MOTION_DOT":"0.00000229","BSTAR":"0.00003431700000","OBJECT_ID":"2021-044Y","OBJECT_NAME":"STARLINK-2688","EPOCH":"2022-02-02T14:20:14.594496","TIME_SYSTEM":"UTC","CENTER_NAME":"EARTH","LAUNCH_DATE":"2021-05-26","ARG_OF_PERICENTER":"70.5900","RCS_SIZE":"LARGE","TLE_LINE2":"2 48660  53.0567 357.8406 0001776  70.5900 289.5281 15.06385753 38219","COUNTRY_CODE":"US","MEAN_MOTION_DDOT":"0.0000000000000","ECCENTRICITY":"0.00017760","MEAN_MOTION":"15.06385753"},{"FILE":"3290316","TLE_LINE1":"1 48661U 21044Z   22033.59830538  .00000350  00000-0  42391-4 0  9998","DECAY_DATE":null,"SEMIMAJOR_AXIS":"6925.305","INCLINATION":"53.0572","OBJECT_TYPE":"PAYLOAD","NORAD_CAT_ID":"48661","EPHEMERIS_TYPE":"0","MEAN_ELEMENT_THEORY":"SGP4","GP_ID":"195166896","RA_OF_ASC_NODE":"347.8291","REV_AT_EPOCH":"3925","EPOCH":"2022-02-02T14:21:33.584832","TIME_SYSTEM":"UTC","MEAN_MOTION_DOT":"0.00000350","BSTAR":"0.00004239100000","MEAN_ANOMALY":"303.9862","OBJECT_NAME":"STARLINK-2708","OBJECT_ID":"2021-044Z","SITE":"AFETR","PERIAPSIS":"545.961","CLASSIFICATION_TYPE":"U","APOAPSIS":"548.379","ELEMENT_SET_NO":"999","PERIOD":"95.591","REF_FRAME":"TEME","ECCENTRICITY":"0.00017460","MEAN_MOTION":"15.06414224","COUNTRY_CODE":"US","MEAN_MOTION_DDOT":"0.0000000000000","TLE_LINE2":"2 48661  53.0572 347.8291 0001746  56.1293 303.9862 15.06414224 39256","RCS_SIZE":"LARGE","LAUNCH_DATE":"2021-05-26","ARG_OF_PERICENTER":"56.1293","CENTER_NAME":"EARTH"},{"SEMIMAJOR_AXIS":"6925.363","INCLINATION":"53.0559","OBJECT_TYPE":"PAYLOAD","TLE_LINE1":"1 48662U 21044AA  22033.66097141  .00000082  00000-0  24383-4 0  9995","DECAY_DATE":null,"FILE":"3290513","GP_ID":"195193359","MEAN_ELEMENT_THEORY":"SGP4","REV_AT_EPOCH":"3836","RA_OF_ASC_NODE":"347.5591","EPHEMERIS_TYPE":"0","NORAD_CAT_ID":"48662","CLASSIFICATION_TYPE":"U","PERIOD":"95.592","REF_FRAME":"TEME","APOAPSIS":"548.367","ELEMENT_SET_NO":"999","MEAN_ANOMALY":"291.8553","MEAN_MOTION_DOT":"0.00000082","BSTAR":"0.00002438300000","OBJECT_ID":"2021-044AA","OBJECT_NAME":"STARLINK-2726","EPOCH":"2022-02-02T15:51:47.929824","TIME_SYSTEM":"UTC","PERIAPSIS":"546.089","SITE":"AFETR","LAUNCH_DATE":"2021-05-26","ARG_OF_PERICENTER":"68.2611","CENTER_NAME":"EARTH","COUNTRY_CODE":"US","MEAN_MOTION_DDOT":"0.0000000000000","ECCENTRICITY":"0.00016450","MEAN_MOTION":"15.06395303","TLE_LINE2":"2 48662  53.0559 347.5591 0001645  68.2611 291.8553 15.06395303 38367","RCS_SIZE":"LARGE"}];
